CCSDS_OMM_VERS = 2.0
CREATION_DATE  = 
ORIGINATOR     = 

OBJECT_NAME    = STARLINK-36550
OBJECT_ID      = 2026-012C
CENTER_NAME    = EARTH
REF_FRAME      = TEME
TIME_SYSTEM    = UTC
MEAN_ELEMENT_THEORY = SGP/SGP4

EPOCH          = 2026-01-31T20:00:01.999008
MEAN_MOTION    = 15.87935255
ECCENTRICITY   = .0001229
INCLINATION    = 42.9960
RA_OF_ASC_NODE = 167.4360
ARG_OF_PERICENTER = 279.1283
MEAN_ANOMALY   = 288.0709

EPHEMERIS_TYPE = 0
CLASSIFICATION_TYPE = U
NORAD_CAT_ID   = 67495
ELEMENT_SET_NO = 999
REV_AT_EPOCH   = 314
BSTAR          = -.67916E-2
MEAN_MOTION_DOT = -.166081E-1
MEAN_MOTION_DDOT = 0

CCSDS_OMM_VERS = 2.0
CREATION_DATE  = 
ORIGINATOR     = 

OBJECT_NAME    = STARLINK-36534
OBJECT_ID      = 2026-012D
CENTER_NAME    = EARTH
REF_FRAME      = TEME
TIME_SYSTEM    = UTC
MEAN_ELEMENT_THEORY = SGP/SGP4

EPOCH          = 2026-01-31T20:00:01.999008
MEAN_MOTION    = 15.88137026
ECCENTRICITY   = .0001347
INCLINATION    = 42.9964
RA_OF_ASC_NODE = 167.4183
ARG_OF_PERICENTER = 279.7420
MEAN_ANOMALY   = 294.4288

EPHEMERIS_TYPE = 0
CLASSIFICATION_TYPE = U
NORAD_CAT_ID   = 67496
ELEMENT_SET_NO = 999
REV_AT_EPOCH   = 308
BSTAR          = -.66939E-2
MEAN_MOTION_DOT = -.1654733E-1
MEAN_MOTION_DDOT = 0

CCSDS_OMM_VERS = 2.0
CREATION_DATE  = 
ORIGINATOR     = 

OBJECT_NAME    = STARLINK-36555
OBJECT_ID      = 2026-012E
CENTER_NAME    = EARTH
REF_FRAME      = TEME
TIME_SYSTEM    = UTC
MEAN_ELEMENT_THEORY = SGP/SGP4

EPOCH          = 2026-01-31T20:00:01.999008
MEAN_MOTION    = 15.88019741
ECCENTRICITY   = .0001434
INCLINATION    = 42.9963
RA_OF_ASC_NODE = 167.4282
ARG_OF_PERICENTER = 283.6737
MEAN_ANOMALY   = 286.6399

EPHEMERIS_TYPE = 0
CLASSIFICATION_TYPE = U
NORAD_CAT_ID   = 67497
ELEMENT_SET_NO = 999
REV_AT_EPOCH   = 314
BSTAR          = -.6752E-2
MEAN_MOTION_DOT = -.1658723E-1
MEAN_MOTION_DDOT = 0

CCSDS_OMM_VERS = 2.0
CREATION_DATE  = 
ORIGINATOR     = 

OBJECT_NAME    = STARLINK-36081
OBJECT_ID      = 2026-012F
CENTER_NAME    = EARTH
REF_FRAME      = TEME
TIME_SYSTEM    = UTC
MEAN_ELEMENT_THEORY = SGP/SGP4

EPOCH          = 2026-01-31T20:00:01.999008
MEAN_MOTION    = 15.88275801
ECCENTRICITY   = .0001473
INCLINATION    = 42.9964
RA_OF_ASC_NODE = 167.4062
ARG_OF_PERICENTER = 283.1913
MEAN_ANOMALY   = 295.8009

EPHEMERIS_TYPE = 0
CLASSIFICATION_TYPE = U
NORAD_CAT_ID   = 67498
ELEMENT_SET_NO = 999
REV_AT_EPOCH   = 308
BSTAR          = -.66052E-2
MEAN_MOTION_DOT = -.1645791E-1
MEAN_MOTION_DDOT = 0

CCSDS_OMM_VERS = 2.0
CREATION_DATE  = 
ORIGINATOR     = 

OBJECT_NAME    = STARLINK-36558
OBJECT_ID      = 2026-012G
CENTER_NAME    = EARTH
REF_FRAME      = TEME
TIME_SYSTEM    = UTC
MEAN_ELEMENT_THEORY = SGP/SGP4

EPOCH          = 2026-01-31T20:00:01.999008
MEAN_MOTION    = 15.88353760
ECCENTRICITY   = .0001338
INCLINATION    = 42.9963
RA_OF_ASC_NODE = 167.4003
ARG_OF_PERICENTER = 278.7151
MEAN_ANOMALY   = 302.7346

EPHEMERIS_TYPE = 0
CLASSIFICATION_TYPE = U
NORAD_CAT_ID   = 67499
ELEMENT_SET_NO = 999
REV_AT_EPOCH   = 314
BSTAR          = -.66278E-2
MEAN_MOTION_DOT = -.1656246E-1
MEAN_MOTION_DDOT = 0

CCSDS_OMM_VERS = 2.0
CREATION_DATE  = 
ORIGINATOR     = 

OBJECT_NAME    = STARLINK-36557
OBJECT_ID      = 2026-012H
CENTER_NAME    = EARTH
REF_FRAME      = TEME
TIME_SYSTEM    = UTC
MEAN_ELEMENT_THEORY = SGP/SGP4

EPOCH          = 2026-01-31T20:00:01.999008
MEAN_MOTION    = 15.88469593
ECCENTRICITY   = .0001367
INCLINATION    = 42.9965
RA_OF_ASC_NODE = 167.3891
ARG_OF_PERICENTER = 282.0715
MEAN_ANOMALY   = 303.4020

EPHEMERIS_TYPE = 0
CLASSIFICATION_TYPE = U
NORAD_CAT_ID   = 67500
ELEMENT_SET_NO = 999
REV_AT_EPOCH   = 314
BSTAR          = -.65545E-2
MEAN_MOTION_DOT = -.1648728E-1
MEAN_MOTION_DDOT = 0

CCSDS_OMM_VERS = 2.0
CREATION_DATE  = 
ORIGINATOR     = 

OBJECT_NAME    = STARLINK-36433
OBJECT_ID      = 2026-012J
CENTER_NAME    = EARTH
REF_FRAME      = TEME
TIME_SYSTEM    = UTC
MEAN_ELEMENT_THEORY = SGP/SGP4

EPOCH          = 2026-01-31T20:00:01.999008
MEAN_MOTION    = 15.88574263
ECCENTRICITY   = .0001549
INCLINATION    = 42.9963
RA_OF_ASC_NODE = 167.3810
ARG_OF_PERICENTER = 278.4917
MEAN_ANOMALY   = 310.4857

EPHEMERIS_TYPE = 0
CLASSIFICATION_TYPE = U
NORAD_CAT_ID   = 67501
ELEMENT_SET_NO = 999
REV_AT_EPOCH   = 314
BSTAR          = -.65201E-2
MEAN_MOTION_DOT = -.1648994E-1
MEAN_MOTION_DDOT = 0

CCSDS_OMM_VERS = 2.0
CREATION_DATE  = 
ORIGINATOR     = 

OBJECT_NAME    = STARLINK-36554
OBJECT_ID      = 2026-012K
CENTER_NAME    = EARTH
REF_FRAME      = TEME
TIME_SYSTEM    = UTC
MEAN_ELEMENT_THEORY = SGP/SGP4

EPOCH          = 2026-01-28T18:49:29.593920
MEAN_MOTION    = 16.00907404
ECCENTRICITY   = .00123264
INCLINATION    = 42.9964
RA_OF_ASC_NODE = 186.3737
ARG_OF_PERICENTER = 300.6114
MEAN_ANOMALY   = 59.3549

EPHEMERIS_TYPE = 0
CLASSIFICATION_TYPE = U
NORAD_CAT_ID   = 67502
ELEMENT_SET_NO = 999
REV_AT_EPOCH   = 158
BSTAR          = .15774164E-2
MEAN_MOTION_DOT = .888078E-2
MEAN_MOTION_DDOT = .38383813E-3

CCSDS_OMM_VERS = 2.0
CREATION_DATE  = 
ORIGINATOR     = 

OBJECT_NAME    = STARLINK-36552
OBJECT_ID      = 2026-012L
CENTER_NAME    = EARTH
REF_FRAME      = TEME
TIME_SYSTEM    = UTC
MEAN_ELEMENT_THEORY = SGP/SGP4

EPOCH          = 2026-01-31T20:00:01.999008
MEAN_MOTION    = 15.88786821
ECCENTRICITY   = .0001457
INCLINATION    = 42.9965
RA_OF_ASC_NODE = 167.3623
ARG_OF_PERICENTER = 280.2974
MEAN_ANOMALY   = 316.0251

EPHEMERIS_TYPE = 0
CLASSIFICATION_TYPE = U
NORAD_CAT_ID   = 67503
ELEMENT_SET_NO = 999
REV_AT_EPOCH   = 314
BSTAR          = -.63812E-2
MEAN_MOTION_DOT = -.1633571E-1
MEAN_MOTION_DDOT = 0

CCSDS_OMM_VERS = 2.0
CREATION_DATE  = 
ORIGINATOR     = 

OBJECT_NAME    = STARLINK-36512
OBJECT_ID      = 2026-012M
CENTER_NAME    = EARTH
REF_FRAME      = TEME
TIME_SYSTEM    = UTC
MEAN_ELEMENT_THEORY = SGP/SGP4

EPOCH          = 2026-01-31T20:00:01.999008
MEAN_MOTION    = 15.88916928
ECCENTRICITY   = .0001456
INCLINATION    = 42.9963
RA_OF_ASC_NODE = 167.3509
ARG_OF_PERICENTER = 279.6921
MEAN_ANOMALY   = 321.0285

EPHEMERIS_TYPE = 0
CLASSIFICATION_TYPE = U
NORAD_CAT_ID   = 67504
ELEMENT_SET_NO = 999
REV_AT_EPOCH   = 314
BSTAR          = -.63044E-2
MEAN_MOTION_DOT = -.1625793E-1
MEAN_MOTION_DDOT = 0

CCSDS_OMM_VERS = 2.0
CREATION_DATE  = 
ORIGINATOR     = 

OBJECT_NAME    = STARLINK-36545
OBJECT_ID      = 2026-012N
CENTER_NAME    = EARTH
REF_FRAME      = TEME
TIME_SYSTEM    = UTC
MEAN_ELEMENT_THEORY = SGP/SGP4

EPOCH          = 2026-01-31T20:00:01.999008
MEAN_MOTION    = 15.88995795
ECCENTRICITY   = .0001399
INCLINATION    = 42.9963
RA_OF_ASC_NODE = 167.3443
ARG_OF_PERICENTER = 279.5651
MEAN_ANOMALY   = 323.7136

EPHEMERIS_TYPE = 0
CLASSIFICATION_TYPE = U
NORAD_CAT_ID   = 67505
ELEMENT_SET_NO = 999
REV_AT_EPOCH   = 314
BSTAR          = -.63188E-2
MEAN_MOTION_DOT = -.1634704E-1
MEAN_MOTION_DDOT = 0

CCSDS_OMM_VERS = 2.0
CREATION_DATE  = 
ORIGINATOR     = 

OBJECT_NAME    = STARLINK-36553
OBJECT_ID      = 2026-012P
CENTER_NAME    = EARTH
REF_FRAME      = TEME
TIME_SYSTEM    = UTC
MEAN_ELEMENT_THEORY = SGP/SGP4

EPOCH          = 2026-01-31T20:00:01.999008
MEAN_MOTION    = 15.89097549
ECCENTRICITY   = .0001435
INCLINATION    = 42.9966
RA_OF_ASC_NODE = 167.3360
ARG_OF_PERICENTER = 279.8138
MEAN_ANOMALY   = 327.0302

EPHEMERIS_TYPE = 0
CLASSIFICATION_TYPE = U
NORAD_CAT_ID   = 67506
ELEMENT_SET_NO = 999
REV_AT_EPOCH   = 314
BSTAR          = -.62368E-2
MEAN_MOTION_DOT = -.1623568E-1
MEAN_MOTION_DDOT = 0

