STARLINK-36550          
1 67495U 26012C   26031.83335647 -.01660810  00000+0 -67916-2 0  9997
2 67495  42.9960 167.4360 0001229 279.1283 288.0709 15.87935255  3148
STARLINK-36534          
1 67496U 26012D   26031.83335647 -.01654733  00000+0 -66939-2 0  9999
2 67496  42.9964 167.4183 0001347 279.7420 294.4288 15.88137026  3083
STARLINK-36555          
1 67497U 26012E   26031.83335647 -.01658723  00000+0 -67520-2 0  9990
2 67497  42.9963 167.4282 0001434 283.6737 286.6399 15.88019741  3141
STARLINK-36081          
1 67498U 26012F   26031.83335647 -.01645791  00000+0 -66052-2 0  9991
2 67498  42.9964 167.4062 0001473 283.1913 295.8009 15.88275801  3087
STARLINK-36558          
1 67499U 26012G   26031.83335647 -.01656246  00000+0 -66278-2 0  9999
2 67499  42.9963 167.4003 0001338 278.7151 302.7346 15.88353760  3146
STARLINK-36557          
1 67500U 26012H   26031.83335647 -.01648728  00000+0 -65545-2 0  9994
2 67500  42.9965 167.3891 0001367 282.0715 303.4020 15.88469593  3140
STARLINK-36433          
1 67501U 26012J   26031.83335647 -.01648994  00000+0 -65201-2 0  9999
2 67501  42.9963 167.3810 0001549 278.4917 310.4857 15.88574263  3142
STARLINK-36554          
1 67502U 26012K   26028.78437030  .00888078  38384-3  15774-2 0  9995
2 67502  42.9964 186.3737 0012326 300.6114  59.3549 16.00907404  1580
STARLINK-36552          
1 67503U 26012L   26031.83335647 -.01633571  00000+0 -63812-2 0  9992
2 67503  42.9965 167.3623 0001457 280.2974 316.0251 15.88786821  3145
STARLINK-36512          
1 67504U 26012M   26031.83335647 -.01625793  00000+0 -63044-2 0  9997
2 67504  42.9963 167.3509 0001456 279.6921 321.0285 15.88916928  3146
STARLINK-36545          
1 67505U 26012N   26031.83335647 -.01634704  00000+0 -63188-2 0  9999
2 67505  42.9963 167.3443 0001399 279.5651 323.7136 15.88995795  3142
STARLINK-36553          
1 67506U 26012P   26031.83335647 -.01623568  00000+0 -62368-2 0  9995
2 67506  42.9966 167.3360 0001435 279.8138 327.0302 15.89097549  3141
